STARLINK-31494          
1 59238U 24049H   26068.26348078 -.00002260  00000+0 -72634-4 0  9993
2 59238  43.0015 145.7093 0001179 241.1794 118.8939 15.27577403112348
FLOCK 4G-18             
1 62680U 25009BZ  26068.19114186  .00011766  00000+0  44319-3 0  9995
2 62680  97.4054 150.5008 0004100 335.7331  24.3715 15.27241676121267
